{
    "week": 289,
    "satellites": [
        {
            "Name": "GSAT0218 (GALILEO 22)",
            "Line1": "1 43058U 17079D   24294.39453373 -.00000007  00000+0  00000+0 0  9998",
            "Line2": "2 43058  55.2888 238.1475 0004409 282.7218  77.2095  1.70473754 42672",
            "SatelliteNumber": "43058",
            "Classification": "U",
            "LaunchYear": "17",
            "LaunchNumber": "079",
            "PieceOfLaunch": "D",
            "EpochYear": "24",
            "EpochDay": 294.39453373,
            "FirstDerivativeMeanMotion": -7e-08,
            "SecondDerivativeMeanMotion": "00000+0",
            "BSTAR": "00000+0",
            "SetNumber": "999",
            "Inclination": 55.2888,
            "RAAN": 238.1475,
            "Eccentricity": 0.0004409,
            "ArgumentOfPerigee": 282.7218,
            "MeanAnomaly": 77.2095,
            "MeanMotion": 1.70473754,
            "RevolutionNumber": "4267"
        },
        {
            "Name": "GSAT0221 (GALILEO 25)",
            "Line1": "1 43564U 18060A   24293.12259456 -.00000095  00000+0  00000+0 0  9994",
            "Line2": "2 43564  57.2983 358.1331 0004941 263.7689  96.2347  1.70476007 38836",
            "SatelliteNumber": "43564",
            "Classification": "U",
            "LaunchYear": "18",
            "LaunchNumber": "060",
            "PieceOfLaunch": "A",
            "EpochYear": "24",
            "EpochDay": 293.12259456,
            "FirstDerivativeMeanMotion": -9.5e-07,
            "SecondDerivativeMeanMotion": "00000+0",
            "BSTAR": "00000+0",
            "SetNumber": "999",
            "Inclination": 57.2983,
            "RAAN": 358.1331,
            "Eccentricity": 0.0004941,
            "ArgumentOfPerigee": 263.7689,
            "MeanAnomaly": 96.2347,
            "MeanMotion": 1.70476007,
            "RevolutionNumber": "3883"
        },
        {
            "Name": "GSAT0222 (GALILEO 26)",
            "Line1": "1 43565U 18060B   24293.92787237 -.00000098  00000+0  00000+0 0  9999",
            "Line2": "2 43565  57.3017 358.1135 0005103 237.8789 122.1305  1.70475838 38892",
            "SatelliteNumber": "43565",
            "Classification": "U",
            "LaunchYear": "18",
            "LaunchNumber": "060",
            "PieceOfLaunch": "B",
            "EpochYear": "24",
            "EpochDay": 293.92787237,
            "FirstDerivativeMeanMotion": -9.8e-07,
            "SecondDerivativeMeanMotion": "00000+0",
            "BSTAR": "00000+0",
            "SetNumber": "999",
            "Inclination": 57.3017,
            "RAAN": 358.1135,
            "Eccentricity": 0.0005103,
            "ArgumentOfPerigee": 237.8789,
            "MeanAnomaly": 122.1305,
            "MeanMotion": 1.70475838,
            "RevolutionNumber": "3889"
        },
        {
            "Name": "GSAT0219 (GALILEO 23)",
            "Line1": "1 43566U 18060C   24292.97640611 -.00000095  00000+0  00000+0 0  9995",
            "Line2": "2 43566  57.3008 358.1410 0004073 267.1697  92.8438  1.70475910 38855",
            "SatelliteNumber": "43566",
            "Classification": "U",
            "LaunchYear": "18",
            "LaunchNumber": "060",
            "PieceOfLaunch": "C",
            "EpochYear": "24",
            "EpochDay": 292.97640611,
            "FirstDerivativeMeanMotion": -9.5e-07,
            "SecondDerivativeMeanMotion": "00000+0",
            "BSTAR": "00000+0",
            "SetNumber": "999",
            "Inclination": 57.3008,
            "RAAN": 358.141,
            "Eccentricity": 0.0004073,
            "ArgumentOfPerigee": 267.1697,
            "MeanAnomaly": 92.8438,
            "MeanMotion": 1.7047591,
            "RevolutionNumber": "3885"
        },
        {
            "Name": "GSAT0220 (GALILEO 24)",
            "Line1": "1 43567U 18060D   24294.37028678 -.00000099  00000+0  00000+0 0  9999",
            "Line2": "2 43567  57.3004 358.1033 0004233 262.0046  98.0057  1.70475857 38869",
            "SatelliteNumber": "43567",
            "Classification": "U",
            "LaunchYear": "18",
            "LaunchNumber": "060",
            "PieceOfLaunch": "D",
            "EpochYear": "24",
            "EpochDay": 294.37028678,
            "FirstDerivativeMeanMotion": -9.9e-07,
            "SecondDerivativeMeanMotion": "00000+0",
            "BSTAR": "00000+0",
            "SetNumber": "999",
            "Inclination": 57.3004,
            "RAAN": 358.1033,
            "Eccentricity": 0.0004233,
            "ArgumentOfPerigee": 262.0046,
            "MeanAnomaly": 98.0057,
            "MeanMotion": 1.70475857,
            "RevolutionNumber": "3886"
        },
        {
            "Name": "GSAT0223 (GALILEO 27)",
            "Line1": "1 49809U 21116A   24292.46719778 -.00000093  00000+0  00000+0 0  9990",
            "Line2": "2 49809  57.2911 358.0484 0004054 216.5220 146.0340  1.70475858 17843",
            "SatelliteNumber": "49809",
            "Classification": "U",
            "LaunchYear": "21",
            "LaunchNumber": "116",
            "PieceOfLaunch": "A",
            "EpochYear": "24",
            "EpochDay": 292.46719778,
            "FirstDerivativeMeanMotion": -9.3e-07,
            "SecondDerivativeMeanMotion": "00000+0",
            "BSTAR": "00000+0",
            "SetNumber": "999",
            "Inclination": 57.2911,
            "RAAN": 358.0484,
            "Eccentricity": 0.0004054,
            "ArgumentOfPerigee": 216.522,
            "MeanAnomaly": 146.034,
            "MeanMotion": 1.70475858,
            "RevolutionNumber": "1784"
        },
        {
            "Name": "GSAT0224 (GALILEO 28)",
            "Line1": "1 49810U 21116B   24294.63970100 -.00000100  00000+0  00000+0 0  9990",
            "Line2": "2 49810  57.2915 357.9879 0003425 218.2300 150.1604  1.70476033 17894",
            "SatelliteNumber": "49810",
            "Classification": "U",
            "LaunchYear": "21",
            "LaunchNumber": "116",
            "PieceOfLaunch": "B",
            "EpochYear": "24",
            "EpochDay": 294.639701,
            "FirstDerivativeMeanMotion": -1e-06,
            "SecondDerivativeMeanMotion": "00000+0",
            "BSTAR": "00000+0",
            "SetNumber": "999",
            "Inclination": 57.2915,
            "RAAN": 357.9879,
            "Eccentricity": 0.0003425,
            "ArgumentOfPerigee": 218.23,
            "MeanAnomaly": 150.1604,
            "MeanMotion": 1.70476033,
            "RevolutionNumber": "1789"
        },
        {
            "Name": "GSAT0225 (GALILEO 29)",
            "Line1": "1 59598U 24079A   24291.41855080  .00000063  00000+0  00000+0 0  9994",
            "Line2": "2 59598  54.7635 118.0873 0002592 159.8048  22.5655  1.70474298  2952",
            "SatelliteNumber": "59598",
            "Classification": "U",
            "LaunchYear": "24",
            "LaunchNumber": "079",
            "PieceOfLaunch": "A",
            "EpochYear": "24",
            "EpochDay": 291.4185508,
            "FirstDerivativeMeanMotion": 6.3e-07,
            "SecondDerivativeMeanMotion": "00000+0",
            "BSTAR": "00000+0",
            "SetNumber": "999",
            "Inclination": 54.7635,
            "RAAN": 118.0873,
            "Eccentricity": 0.0002592,
            "ArgumentOfPerigee": 159.8048,
            "MeanAnomaly": 22.5655,
            "MeanMotion": 1.70474298,
            "RevolutionNumber": "295"
        },
        {
            "Name": "GSAT0227 (GALILEO 30)",
            "Line1": "1 59600U 24079C   24294.23769961  .00000040  00000+0  00000+0 0  9998",
            "Line2": "2 59600  54.7596 118.0088 0003792 112.0573 248.0258  1.70474403  3051",
            "SatelliteNumber": "59600",
            "Classification": "U",
            "LaunchYear": "24",
            "LaunchNumber": "079",
            "PieceOfLaunch": "C",
            "EpochYear": "24",
            "EpochDay": 294.23769961,
            "FirstDerivativeMeanMotion": 4e-07,
            "SecondDerivativeMeanMotion": "00000+0",
            "BSTAR": "00000+0",
            "SetNumber": "999",
            "Inclination": 54.7596,
            "RAAN": 118.0088,
            "Eccentricity": 0.0003792,
            "ArgumentOfPerigee": 112.0573,
            "MeanAnomaly": 248.0258,
            "MeanMotion": 1.70474403,
            "RevolutionNumber": "305"
        },
        {
            "Name": "GSAT0232 (GALILEO 32)",
            "Line1": "1 61182U 24167A   24294.07772350 -.00000006  00000+0  00000+0 0  9995",
            "Line2": "2 61182  55.4014 237.9076 0016664 274.1769  85.6126  1.73176846   553",
            "SatelliteNumber": "61182",
            "Classification": "U",
            "LaunchYear": "24",
            "LaunchNumber": "167",
            "PieceOfLaunch": "A",
            "EpochYear": "24",
            "EpochDay": 294.0777235,
            "FirstDerivativeMeanMotion": -6e-08,
            "SecondDerivativeMeanMotion": "00000+0",
            "BSTAR": "00000+0",
            "SetNumber": "999",
            "Inclination": 55.4014,
            "RAAN": 237.9076,
            "Eccentricity": 0.0016664,
            "ArgumentOfPerigee": 274.1769,
            "MeanAnomaly": 85.6126,
            "MeanMotion": 1.73176846,
            "RevolutionNumber": "55"
        }
    ]
}